UFO 10 (USA 146)        
1 25967U 99063A   26093.10208702 -.00000191  00000+0  00000+0 0  9996
2 25967   9.8481  27.6043 0004426 320.7019 216.8611  1.00267829 96590
ASIASTAR                
1 26107U 00016A   26093.84050903 -.00000332  00000+0  00000+0 0  9999
2 26107   8.9591  58.9372 0005066 324.0485 216.7843  1.00272166 95175
USA 149 (DSP 20)        
1 26356U 00024A   26093.50171280  .00000093  00000+0  00000+0 0  9992
2 26356  13.1156  12.3798 0001653 347.5526 207.2739  1.00267317 32167
TDRS 8                  
1 26388U 00034A   26093.86599880 -.00000195  00000+0  00000+0 0  9991
2 26388  12.5682  31.9431 0005849 329.7150 227.1695  1.00270690 94434
NSS-11                  
1 26554U 00059A   26094.13979966  .00000025  00000+0  00000+0 0  9992
2 26554   1.9356  82.2517 0003138 294.6691  41.8642  1.00273314 40544
USA 153                 
1 26575U 00065A   26094.20289326 -.00000322  00000+0  00000+0 0  9995
2 26575  11.4995  36.0242 0003509  19.5954 344.4449  1.00274648 32192
AMC-6                   
1 26580U 00067A   26094.24314302  .00000088  00000+0  00000+0 0  9998
2 26580   0.0616  57.1778 0003722 331.2414 116.6176  1.00273642 93154
USA 157 (MILSTAR-2 2)   
1 26715U 01009A   26093.54438590  .00000108  00000+0  00000+0 0  9996
2 26715  11.4621  20.2192 0037438 182.0119  35.6537  1.00267349 32197
USA 159 (DSP 21)        
1 26880U 01033A   26093.50223280 -.00000047  00000+0  00000+0 0  9993
2 26880  12.7119  16.9389 0000324 342.7368 210.2398  0.99201549 32217
INTELSAT 902 (IS-902)   
1 26900U 01039A   26094.23764672 -.00000281  00000+0  00000+0 0  9998
2 26900   5.9315  72.6706 0004486 298.7599 216.5883  1.00271898 89951
USA 164 (MILSTAR-2 3)   
1 27168U 02001A   26094.02822708  .00000097  00000+0  00000+0 0  9991
2 27168  11.0914  22.3517 0099881   5.1022 193.9816  1.00271162 32212
INTELSAT 904 (IS-904)   
1 27380U 02007A   26094.22197449 -.00000223  00000+0  00000+0 0  9994
2 27380   6.7365  70.0593 0007509 326.3781 204.5411  1.00273023 51027
DIRECTV 5 (TEMPO 1)     
1 27426U 02023A   26094.08311943 -.00000056  00000+0  00000+0 0  9998
2 27426   4.6893  76.2183 0003782 309.0319  86.9757  1.00272799 87380
INTELSAT 905 (IS-905)   
1 27438U 02027A   26093.07946694  .00000094  00000+0  00000+0 0  9991
2 27438   6.5662  70.6915 0003267 315.6989  56.4288  1.00273159 50611
GALAXY 3C (G-3C)        
1 27445U 02030A   26094.08615278 -.00000152  00000+0  00000+0 0  9992
2 27445   3.5396  78.9965 0001585  20.0510  29.5147  1.00271706 45754
INTELSAT 906 (IS-906)   
1 27513U 02041A   26094.04628596  .00000014  00000+0  00000+0 0  9999
2 27513   5.6153  73.8182 0003336 309.3798 249.9777  1.00272042 86280
NIMIQ 2                 
1 27632U 02062A   26094.22006716 -.00000067  00000+0  00000+0 0  9997
2 27632   9.2765  57.6623 0006605 318.0513 146.8571  1.00272644 43441
